GLOBALSTAR M075         
1 37192U 10054E   23253.58617189 -.00000091  00000+0  72082-4 0  9995
2 37192  51.9975 347.2520 0000427  89.8104  15.0669 12.62260925594477
GLOBALSTAR M073         
1 37193U 10054F   23253.52091772 -.00000079  00000+0  14066-3 0  9997
2 37193  52.0041 260.7778 0000306  85.3194  82.7530 12.62267351596294
GLOBALSTAR M083         
1 37739U 11033A   23253.29131760 -.00000104  00000+0 -34378-5 0  9997
2 37739  51.9842 211.0875 0000125  87.9727  57.3340 12.62268717565282
GLOBALSTAR M088         
1 37740U 11033B   23253.55115230 -.00000086  00000+0  97765-4 0  9998
2 37740  51.9725 116.3326 0000479  54.1933 312.0010 12.62265387560863
GLOBALSTAR M091         
1 37741U 11033C   23253.28393966 -.00000089  00000+0  82251-4 0  9990
2 37741  51.9993  79.5451 0000479  70.4457 100.2884 12.62266131561610
GLOBALSTAR M085         
1 37742U 11033D   23253.56718472 -.00000097  00000+0  35531-4 0  9993
2 37742  51.9889  30.2912 0000502  98.3203 341.0803 12.62266694562167
GLOBALSTAR M081         
1 37743U 11033E   23253.59407189 -.00000100  00000+0  19935-4 0  9992
2 37743  51.9978  32.5983 0000527  72.3202   8.9636 12.62270698562317
GLOBALSTAR M089         
1 37744U 11033F   23253.55986867 -.00000089  00000+0  81939-4 0  9993
2 37744  51.9958 347.0551 0000766  86.4279  18.9546 12.62266483563157
